OSCAR 7 (AO-7)          
1 07530U 74089B   26181.49292171 -.00000031  00000+0  93300-4 0  9999
2 07530 101.9899 194.8782 0012650 105.4653  62.9717 12.53698351362186
PHASE 3B (AO-10)        
1 14129U 83058B   26180.99416899 -.00000150  00000+0  00000+0 0  9998
2 14129  25.9232 217.4494 6006519 119.1882 313.2024  2.05871195295751
UOSAT 2 (UO-11)         
1 14781U 84021B   26181.44393379  .00001463  00000+0  15424-3 0  9998
2 14781  97.8066 146.8710 0008679 132.2149 227.9807 14.90816407259100
LUSAT (LO-19)           
1 20442U 90005G   26181.50777458  .00000117  00000+0  58344-4 0  9993
2 20442  98.8846 203.6802 0011882 161.9556 198.2052 14.34127067904309
EYESAT A (AO-27)        
1 22825U 93061C   26181.14554384  .00000101  00000+0  55321-4 0  9991
2 22825  98.6876 248.5541 0009411  66.2807 293.9362 14.30945530708854
ITAMSAT (IO-26)         
1 22826U 93061D   26181.19099208  .00000099  00000+0  54358-4 0  9991
2 22826  98.6824 248.5184 0009740  50.8526 309.3521 14.31372817709171
RADIO ROSTO (RS15)      
1 23439U 94085A   26181.50803380 -.00000040  00000+0  82222-4 0  9996
2 23439  64.8174 281.6733 0156390   1.4131 358.7206 11.27583443297408
JAS-2 (FO-29)           
1 24278U 96046B   26181.47130366 -.00000023  00000+0  10400-4 0  9990
2 24278  98.5227  28.5229 0350835  62.0613 301.5579 13.53274914474967
TECHSAT 1B (GO-32)      
1 25397U 98043D   26181.48079174  .00000061  00000+0  46516-4 0  9990
2 25397  99.0072 174.5750 0001700 138.6209 221.5098 14.24430945453220
ISS (ZARYA)             
1 25544U 98067A   26181.54075800  .00005426  00000+0  10481-3 0  9990
2 25544  51.6313 233.9888 0004287 251.0038 109.0487 15.49489460573826
PCSAT (NO-44)           
1 26931U 01043C   26181.42991921  .00000101  00000+0  68747-4 0  9991
2 26931  67.0490 210.0201 0006029 265.4507  94.5906 14.31960263292349
SAUDISAT 1C (SO-50)     
1 27607U 02058C   26181.23705801  .00000912  00000+0  12485-3 0  9995
2 27607  64.5520  88.6095 0074955 260.0398  99.2242 14.83073203266395
CUTE-1 (CO-55)          
1 27844U 03031E   26180.96278102  .00000311  00000+0  15340-3 0  9994
2 27844  98.6736 189.3610 0010300 142.4898 217.7002 14.24343456193495
CUBESAT XI-IV (CO-57)   
1 27848U 03031J   26180.95765288  .00000265  00000+0  13524-3 0  9993
2 27848  98.6768 189.0585 0009785 160.0224 200.1339 14.23627529193197
MOZHAETS 4 (RS22)       
1 27939U 03042A   26181.59531362  .00000624  00000+0  10432-3 0  9995
2 27939  98.3465   6.3329 0010207 221.8433 228.3349 14.73489818217524
CUBESAT XI-V            
1 28895U 05043F   26181.38022833  .00001474  00000+0  23930-3 0  9996
2 28895  98.2997 337.2799 0014555 159.1785 201.0018 14.72666866103697
CUTE-1.7+APD II (CO-65) 
1 32785U 08021C   26181.57267963  .00005513  00000+0  34719-3 0  9999
2 32785  97.8276 163.2708 0008379 355.1087   5.0058 15.09575913987219
SEEDS II (CO-66)        
1 32791U 08021J   26181.45168146  .00016684  00000+0  52225-3 0  9999
2 32791  97.7515 179.9864 0001143 194.0088 166.1122 15.33195659989328
YUBILEINY (RS30)        
1 32953U 08025A   26181.53829769  .00000022  00000+0  86685-4 0  9994
2 32953  82.5041 347.1334 0018518 283.0374  76.8638 12.43180188821352
KKS-1 (KISEKI)          
1 33499U 09002H   26181.54730299  .00001319  00000+0  16846-3 0  9997
2 33499  98.1185 104.2013 0006466 242.8893 117.1661 14.83156997938175
SWISSCUBE               
1 35932U 09051B   26180.68896063  .00000990  00000+0  20492-3 0  9997
2 35932  98.4026  88.7947 0006868 162.6436 197.5001 14.62504487890980
BEESAT-1                
1 35933U 09051C   26181.52633795  .00000828  00000+0  17586-3 0  9993
2 35933  98.3953  89.2540 0005133 171.1167 189.0125 14.61741181891138
ITUPSAT1                
1 35935U 09051E   26180.70676922  .00000759  00000+0  16668-3 0  9996
2 35935  98.4038  87.6006 0006953 190.2945 169.8114 14.60458458890562
XIWANG-1 (HOPE-1)       
1 36122U 09072B   26181.54372861  .00000044  00000+0  23210-3 0  9994
2 36122 100.4029 135.1632 0007148 198.8104 161.2746 13.16439206794769
O/OREOS (USA 219)       
1 37224U 10062C   26181.05410885  .00002413  00000+0  23294-3 0  9998
2 37224  71.9709  51.1931 0013086  35.6256 324.5785 14.93797573118568
JUGNU                   
1 37839U 11058B   26180.52221220  .00000404  00000+0  71335-4 0  9998
2 37839  19.9594 233.4895 0018388 212.2255 288.6400 14.13779747760775
SRMSAT                  
1 37841U 11058D   26181.50653752  .00000386  00000+0  65689-4 0  9993
2 37841  19.9734 338.8527 0011784 350.9994  51.1229 14.11578316759709
STRAND-1                
1 39090U 13009E   26181.49298304  .00000291  00000+0  11203-3 0  9992
2 39090  98.3924   1.4000 0008490 183.0829 177.0307 14.37171160698970
ZACUBE-1 (TSHEPISOSAT)  
1 39417U 13066B   26181.47149207  .00002774  00000+0  21666-3 0  9995
2 39417  97.8044 143.8762 0042662 202.7803 157.1529 15.01258663682723
GOMX-1                  
1 39430U 13066Q   26181.53199458  .00001683  00000+0  25715-3 0  9997
2 39430  97.6473  21.1523 0129526  35.1627 325.8042 14.69504380671873
